ELECTRON KICK STAGE R/B 
1 67616U 26019C   26046.78068055  .00455134  61457-4  20771-2 0  9999
2 67616  97.4043 172.4350 0173982 202.0042 157.3685 15.64622392  2600
STARLINK-36548          
1 67617U 26020A   26046.88586318  .00172694  00000+0  10393-2 0  9998
2 67617  42.9975 274.7981 0002377 256.5155 103.5450 15.76424624  2642
STARLINK-36601          
1 67618U 26020B   26046.67474255  .00385430  00000+0  17418-2 0  9991
2 67618  42.9960 275.7823 0001362 242.4500 117.6234 15.82149394  2612
STARLINK-36119          
1 67619U 26020C   26046.88367039  .00152828  00000+0  92203-3 0  9995
2 67619  42.9971 274.7801 0002216 273.8024  86.2592 15.76429870  2642
STARLINK-36607          
1 67620U 26020D   26046.67297108  .00471430  00000+0  21085-2 0  9995
2 67620  42.9961 275.7677 0001150 260.7397  99.3344 15.82149084  2619
STARLINK-36615          
1 67621U 26020E   26046.67362175  .00459640  00000+0  20572-2 0  9992
2 67621  42.9960 275.7726 0001554 246.0666 114.0043 15.82164708  2619
STARLINK-36614          
1 67622U 26020F   26046.87929344  .00207185  00000+0  12405-2 0  9993
2 67622  42.9973 274.7452 0002592 277.0071  83.0504 15.76436529  2642
STARLINK-36600          
1 67623U 26020G   26046.88148152  .00096863  00000+0  58981-3 0  9994
2 67623  42.9968 274.7632 0002155 275.8637  84.1986 15.76412212  2645
STARLINK-36439          
1 67624U 26020H   26046.91668981  .00173957  00000+0  10549-2 0  9993
2 67624  42.9978 274.3969 0001958 309.2178 313.0685 15.76248169  3894
STARLINK-36438          
1 67625U 26020J   26046.87710485  .00161604  00000+0  97407-3 0  9991
2 67625  42.9971 274.7276 0002693 297.8243  62.2354 15.76422473  2645
STARLINK-36436          
1 67626U 26020K   26046.66902156  .00377667  00000+0  17068-2 0  9999
2 67626  42.9959 275.7357 0001381 272.6811  87.3903 15.82167759  2613
STARLINK-36502          
1 67627U 26020L   26046.66975289  .00368474  00000+0  16677-2 0  9998
2 67627  42.9958 275.7424 0001879 227.8567 132.2145 15.82161003  2614
