CCSDS_OMM_VERS = 2.0
CREATION_DATE  = 
ORIGINATOR     = 

OBJECT_NAME    = ELECTRON KICK STAGE R/B
OBJECT_ID      = 2026-019C
CENTER_NAME    = EARTH
REF_FRAME      = TEME
TIME_SYSTEM    = UTC
MEAN_ELEMENT_THEORY = SGP/SGP4

EPOCH          = 2026-02-15T18:44:10.799520
MEAN_MOTION    = 15.64622392
ECCENTRICITY   = .01739823
INCLINATION    = 97.4043
RA_OF_ASC_NODE = 172.4350
ARG_OF_PERICENTER = 202.0042
MEAN_ANOMALY   = 157.3685

EPHEMERIS_TYPE = 0
CLASSIFICATION_TYPE = U
NORAD_CAT_ID   = 67616
ELEMENT_SET_NO = 999
REV_AT_EPOCH   = 260
BSTAR          = .20771321E-2
MEAN_MOTION_DOT = .455134E-2
MEAN_MOTION_DDOT = .61457351E-4

CCSDS_OMM_VERS = 2.0
CREATION_DATE  = 
ORIGINATOR     = 

OBJECT_NAME    = STARLINK-36548
OBJECT_ID      = 2026-020A
CENTER_NAME    = EARTH
REF_FRAME      = TEME
TIME_SYSTEM    = UTC
MEAN_ELEMENT_THEORY = SGP/SGP4

EPOCH          = 2026-02-15T21:15:38.578752
MEAN_MOTION    = 15.76424624
ECCENTRICITY   = .00023778
INCLINATION    = 42.9975
RA_OF_ASC_NODE = 274.7981
ARG_OF_PERICENTER = 256.5155
MEAN_ANOMALY   = 103.5450

EPHEMERIS_TYPE = 0
CLASSIFICATION_TYPE = U
NORAD_CAT_ID   = 67617
ELEMENT_SET_NO = 999
REV_AT_EPOCH   = 264
BSTAR          = .10392818E-2
MEAN_MOTION_DOT = .172694E-2
MEAN_MOTION_DDOT = 0

CCSDS_OMM_VERS = 2.0
CREATION_DATE  = 
ORIGINATOR     = 

OBJECT_NAME    = STARLINK-36601
OBJECT_ID      = 2026-020B
CENTER_NAME    = EARTH
REF_FRAME      = TEME
TIME_SYSTEM    = UTC
MEAN_ELEMENT_THEORY = SGP/SGP4

EPOCH          = 2026-02-15T16:11:37.756320
MEAN_MOTION    = 15.82149394
ECCENTRICITY   = .00013625
INCLINATION    = 42.9960
RA_OF_ASC_NODE = 275.7823
ARG_OF_PERICENTER = 242.4500
MEAN_ANOMALY   = 117.6234

EPHEMERIS_TYPE = 0
CLASSIFICATION_TYPE = U
NORAD_CAT_ID   = 67618
ELEMENT_SET_NO = 999
REV_AT_EPOCH   = 261
BSTAR          = .17417727E-2
MEAN_MOTION_DOT = .38543E-2
MEAN_MOTION_DDOT = 0

CCSDS_OMM_VERS = 2.0
CREATION_DATE  = 
ORIGINATOR     = 

OBJECT_NAME    = STARLINK-36119
OBJECT_ID      = 2026-020C
CENTER_NAME    = EARTH
REF_FRAME      = TEME
TIME_SYSTEM    = UTC
MEAN_ELEMENT_THEORY = SGP/SGP4

EPOCH          = 2026-02-15T21:12:29.121696
MEAN_MOTION    = 15.76429870
ECCENTRICITY   = .00022163
INCLINATION    = 42.9971
RA_OF_ASC_NODE = 274.7801
ARG_OF_PERICENTER = 273.8024
MEAN_ANOMALY   = 86.2592

EPHEMERIS_TYPE = 0
CLASSIFICATION_TYPE = U
NORAD_CAT_ID   = 67619
ELEMENT_SET_NO = 999
REV_AT_EPOCH   = 264
BSTAR          = .92203278E-3
MEAN_MOTION_DOT = .152828E-2
MEAN_MOTION_DDOT = 0

CCSDS_OMM_VERS = 2.0
CREATION_DATE  = 
ORIGINATOR     = 

OBJECT_NAME    = STARLINK-36607
OBJECT_ID      = 2026-020D
CENTER_NAME    = EARTH
REF_FRAME      = TEME
TIME_SYSTEM    = UTC
MEAN_ELEMENT_THEORY = SGP/SGP4

EPOCH          = 2026-02-15T16:09:04.701312
MEAN_MOTION    = 15.82149084
ECCENTRICITY   = .00011505
INCLINATION    = 42.9961
RA_OF_ASC_NODE = 275.7677
ARG_OF_PERICENTER = 260.7397
MEAN_ANOMALY   = 99.3344

EPHEMERIS_TYPE = 0
CLASSIFICATION_TYPE = U
NORAD_CAT_ID   = 67620
ELEMENT_SET_NO = 999
REV_AT_EPOCH   = 261
BSTAR          = .21084749E-2
MEAN_MOTION_DOT = .47143E-2
MEAN_MOTION_DDOT = 0

CCSDS_OMM_VERS = 2.0
CREATION_DATE  = 
ORIGINATOR     = 

OBJECT_NAME    = STARLINK-36615
OBJECT_ID      = 2026-020E
CENTER_NAME    = EARTH
REF_FRAME      = TEME
TIME_SYSTEM    = UTC
MEAN_ELEMENT_THEORY = SGP/SGP4

EPOCH          = 2026-02-15T16:10:00.919200
MEAN_MOTION    = 15.82164708
ECCENTRICITY   = .00015545
INCLINATION    = 42.9960
RA_OF_ASC_NODE = 275.7726
ARG_OF_PERICENTER = 246.0666
MEAN_ANOMALY   = 114.0043

EPHEMERIS_TYPE = 0
CLASSIFICATION_TYPE = U
NORAD_CAT_ID   = 67621
ELEMENT_SET_NO = 999
REV_AT_EPOCH   = 261
BSTAR          = .20572186E-2
MEAN_MOTION_DOT = .45964E-2
MEAN_MOTION_DDOT = 0

CCSDS_OMM_VERS = 2.0
CREATION_DATE  = 
ORIGINATOR     = 

OBJECT_NAME    = STARLINK-36614
OBJECT_ID      = 2026-020F
CENTER_NAME    = EARTH
REF_FRAME      = TEME
TIME_SYSTEM    = UTC
MEAN_ELEMENT_THEORY = SGP/SGP4

EPOCH          = 2026-02-15T21:06:10.953216
MEAN_MOTION    = 15.76436529
ECCENTRICITY   = .00025926
INCLINATION    = 42.9973
RA_OF_ASC_NODE = 274.7452
ARG_OF_PERICENTER = 277.0071
MEAN_ANOMALY   = 83.0504

EPHEMERIS_TYPE = 0
CLASSIFICATION_TYPE = U
NORAD_CAT_ID   = 67622
ELEMENT_SET_NO = 999
REV_AT_EPOCH   = 264
BSTAR          = .1240506E-2
MEAN_MOTION_DOT = .207185E-2
MEAN_MOTION_DDOT = 0

CCSDS_OMM_VERS = 2.0
CREATION_DATE  = 
ORIGINATOR     = 

OBJECT_NAME    = STARLINK-36600
OBJECT_ID      = 2026-020G
CENTER_NAME    = EARTH
REF_FRAME      = TEME
TIME_SYSTEM    = UTC
MEAN_ELEMENT_THEORY = SGP/SGP4

EPOCH          = 2026-02-15T21:09:20.003328
MEAN_MOTION    = 15.76412212
ECCENTRICITY   = .00021556
INCLINATION    = 42.9968
RA_OF_ASC_NODE = 274.7632
ARG_OF_PERICENTER = 275.8637
MEAN_ANOMALY   = 84.1986

EPHEMERIS_TYPE = 0
CLASSIFICATION_TYPE = U
NORAD_CAT_ID   = 67623
ELEMENT_SET_NO = 999
REV_AT_EPOCH   = 264
BSTAR          = .58981328E-3
MEAN_MOTION_DOT = .96863E-3
MEAN_MOTION_DDOT = 0

CCSDS_OMM_VERS = 2.0
CREATION_DATE  = 
ORIGINATOR     = 

OBJECT_NAME    = STARLINK-36439
OBJECT_ID      = 2026-020H
CENTER_NAME    = EARTH
REF_FRAME      = TEME
TIME_SYSTEM    = UTC
MEAN_ELEMENT_THEORY = SGP/SGP4

EPOCH          = 2026-02-15T22:00:01.999584
MEAN_MOTION    = 15.76248169
ECCENTRICITY   = .00019589
INCLINATION    = 42.9978
RA_OF_ASC_NODE = 274.3969
ARG_OF_PERICENTER = 309.2178
MEAN_ANOMALY   = 313.0685

EPHEMERIS_TYPE = 0
CLASSIFICATION_TYPE = U
NORAD_CAT_ID   = 67624
ELEMENT_SET_NO = 999
REV_AT_EPOCH   = 389
BSTAR          = .10549218E-2
MEAN_MOTION_DOT = .173957E-2
MEAN_MOTION_DDOT = 0

CCSDS_OMM_VERS = 2.0
CREATION_DATE  = 
ORIGINATOR     = 

OBJECT_NAME    = STARLINK-36438
OBJECT_ID      = 2026-020J
CENTER_NAME    = EARTH
REF_FRAME      = TEME
TIME_SYSTEM    = UTC
MEAN_ELEMENT_THEORY = SGP/SGP4

EPOCH          = 2026-02-15T21:03:01.859040
MEAN_MOTION    = 15.76422473
ECCENTRICITY   = .00026933
INCLINATION    = 42.9971
RA_OF_ASC_NODE = 274.7276
ARG_OF_PERICENTER = 297.8243
MEAN_ANOMALY   = 62.2354

EPHEMERIS_TYPE = 0
CLASSIFICATION_TYPE = U
NORAD_CAT_ID   = 67625
ELEMENT_SET_NO = 999
REV_AT_EPOCH   = 264
BSTAR          = .9740654E-3
MEAN_MOTION_DOT = .161604E-2
MEAN_MOTION_DDOT = 0

CCSDS_OMM_VERS = 2.0
CREATION_DATE  = 
ORIGINATOR     = 

OBJECT_NAME    = STARLINK-36436
OBJECT_ID      = 2026-020K
CENTER_NAME    = EARTH
REF_FRAME      = TEME
TIME_SYSTEM    = UTC
MEAN_ELEMENT_THEORY = SGP/SGP4

EPOCH          = 2026-02-15T16:03:23.462784
MEAN_MOTION    = 15.82167759
ECCENTRICITY   = .0001381
INCLINATION    = 42.9959
RA_OF_ASC_NODE = 275.7357
ARG_OF_PERICENTER = 272.6811
MEAN_ANOMALY   = 87.3903

EPHEMERIS_TYPE = 0
CLASSIFICATION_TYPE = U
NORAD_CAT_ID   = 67626
ELEMENT_SET_NO = 999
REV_AT_EPOCH   = 261
BSTAR          = .17068E-2
MEAN_MOTION_DOT = .377667E-2
MEAN_MOTION_DDOT = 0

CCSDS_OMM_VERS = 2.0
CREATION_DATE  = 
ORIGINATOR     = 

OBJECT_NAME    = STARLINK-36502
OBJECT_ID      = 2026-020L
CENTER_NAME    = EARTH
REF_FRAME      = TEME
TIME_SYSTEM    = UTC
MEAN_ELEMENT_THEORY = SGP/SGP4

EPOCH          = 2026-02-15T16:04:26.649696
MEAN_MOTION    = 15.82161003
ECCENTRICITY   = .00018792
INCLINATION    = 42.9958
RA_OF_ASC_NODE = 275.7424
ARG_OF_PERICENTER = 227.8567
MEAN_ANOMALY   = 132.2145

EPHEMERIS_TYPE = 0
CLASSIFICATION_TYPE = U
NORAD_CAT_ID   = 67627
ELEMENT_SET_NO = 999
REV_AT_EPOCH   = 261
BSTAR          = .16676782E-2
MEAN_MOTION_DOT = .368474E-2
MEAN_MOTION_DDOT = 0

